G21
G90;svg > path
G0 X105.83333333333333 Y121.43669444444444
G1 X27.207545138888893 Y149.72365138888887 F300
G0 X105.83333333333333 Y121.43669444444444
G1 X184.48337499999997 Y149.6301652777778 F300
G0 X105.83333333333333 Y121.43669444444444
G1 X105.83333333333333 Y27.52460416666663 F300
G0 X45.28767083333333 Y47.826965277777745
G1 X96.440625 Y29.77268055555555 F300
G1 X98.33461833333335 Y29.10735577777777 F300
G1 X99.16993945062218 Y28.82015571562478 F300
G1 X99.89650666666667 Y28.57779399999998 F300
G1 X100.37053538086278 Y28.425504608632313 F300
G1 X100.80734796611505 Y28.290825485115 F300
G1 X101.212015 Y28.172226555555536 F300
G1 X101.6186494960978 Y28.060420917082276 F300
G1 X102.00224438961965 Y27.963036408724328 F300
G1 X102.36686833333334 Y27.878884777777756 F300
G1 X102.73361687178692 Y27.803493476186347 F300
G1 X103.09246233870675 Y27.73942919588049 F300
G1 X103.44679166666667 Y27.685999999999968 F300
G1 X103.84356633072049 Y27.63644107464383 F300
G1 X104.24080095140596 Y27.59592692659533 F300
G1 X104.63844451336698 Y27.56443216938549 F300
G1 X105.03644716223135 Y27.541940232604006 F300
G1 X105.4347597422864 Y27.52844337819948 F300
G1 X105.83333333333334 Y27.523942708333315 F300
G1 X106.23190692438027 Y27.52844337819948 F300
G1 X106.63021950443529 Y27.54194023260401 F300
G1 X107.02822215329968 Y27.56443216938549 F300
G1 X107.42586571526068 Y27.595926926595325 F300
G1 X107.82310033594618 Y27.636441074643827 F300
G1 X108.21987499999999 Y27.685999999999968 F300
G1 X108.57420432795992 Y27.73942919588049 F300
G1 X108.93304979487975 Y27.803493476186347 F300
G1 X109.29979833333334 Y27.87888477777776 F300
G1 X109.66442227704704 Y27.96303640872433 F300
G1 X110.04801717056888 Y28.060420917082276 F300
G1 X110.45465166666669 Y28.17222655555553 F300
G1 X110.85931870055163 Y28.290825485115004 F300
G1 X111.29613128580388 Y28.425504608632323 F300
G1 X111.77016 Y28.57779399999998 F300
G1 X112.49672721604449 Y28.82015571562478 F300
G1 X113.33204833333335 Y29.107355777777762 F300
G1 X115.22604166666666 Y29.77268055555555 F300
G1 X166.37881944444445 Y47.826965277777745 F300
G1 X168.03692439524298 Y48.41293739665389 F300
G1 X169.49764856610085 Y48.93352790637858 F300
G1 X170.44835702604553 Y49.277345312156385 F300
G1 X171.32054119851261 Y49.598515162629745 F300
G1 X172.12099639917696 Y49.90025334362138 F300
G1 X172.9175941433052 Y50.20972562066485 F300
G1 X173.64802234912582 Y50.50433792135175 F300
G1 X174.3184140625 Y50.78677083333331 F300
G1 X174.82271139100274 Y51.00885472935969 F300
G1 X175.29610830818902 Y51.22656624538429 F300
G1 X175.74095448516954 Y51.44088945821461 F300
G1 X176.15945267489712 Y51.652709619341536 F300
G1 X176.58032658947246 Y51.87744095205457 F300
G1 X176.97839336562967 Y52.102609892049415 F300
G1 X177.35556988535467 Y52.32909109222493 F300
G1 X177.71366335519548 Y52.557698945473234 F300
G1 X177.99853807177578 Y52.75024749462099 F300
G1 X178.27392716655868 Y52.9464072186032 F300
G1 X178.54058339596793 Y53.146661587033265 F300
G1 X178.79923695910531 Y53.35148972114389 F300
G1 X179.05059722222222 Y53.56136805555554 F300
G1 X179.363395059956 Y53.83605341854654 F300
G1 X179.66890321069525 Y54.117355285676126 F300
G1 X179.96712217862304 Y54.40518777748545 F300
G1 X180.2580458297913 Y54.69947314554255 F300
G1 X180.54166102386358 Y55.000141332245896 F300
G1 X180.81794725264407 Y55.30712952241905 F300
G1 X181.08687628600828 Y55.6203816872428 F300
G1 X181.3486287217414 Y55.94011948015432 F300
G1 X181.60258068753268 Y56.265578873181774 F300
G1 X181.84871082766253 Y56.596696695916684 F300
G1 X182.08699000583653 Y56.933416332646914 F300
G1 X182.31738096370253 Y57.275687262555934 F300
G1 X182.53983798765 Y57.62346459357302 F300
G1 X182.75430658436213 Y57.97670859053496 F300
G1 X182.9602557745033 Y58.33454959901226 F300
G1 X183.15785018602293 Y58.69726157423338 F300
G1 X183.34704443577445 Y59.06480096564938 F300
G1 X183.527784132765 Y59.43712925957459 F300
G1 X183.70000556051733 Y59.81421249516772 F300
G1 X183.8636353691914 Y60.196020775971604 F300
G1 X184.01859027777778 Y60.58252777777775 F300
G1 X184.13277906648727 Y60.88931979533984 F300
G1 X184.23978643005853 Y61.2013232702592 F300
G1 X184.33982492251278 Y61.51936556180672 F300
G1 X184.43310272130003 Y61.844294638348245 F300
G1 X184.5198246206276 Y62.17698125643004 F300
G1 X184.61617396131086 Y62.590692795882035 F300
G1 X184.70417524182255 Y63.021709526365754 F300
G1 X184.7839941888764 Y63.47200676304827 F300
G1 X184.855816872428 Y63.94368338477366 F300
G1 X184.91625935096198 Y64.4088153769727 F300
G1 X184.9702983928817 Y64.8996376804712 F300
G1 X185.01803525252075 Y65.418521958063 F300
G1 X185.05961545138888 Y65.96801128472222 F300
G1 X185.10282884994527 Y66.69421866321467 F300
G1 X185.1375514074504 Y67.48110415244746 F300
G1 X185.1642687757202 Y68.33534207818929 F300
G1 X185.18241128965258 Y69.19064402393703 F300
G1 X185.19500685170698 Y70.12005559174136 F300
G1 X185.20282526363167 Y71.13105288708846 F300
G1 X185.2076009252711 Y72.68185171096928 F300
G1 X185.20833333333334 Y74.44052083333334 F300
G1 X185.20833333333334 Y137.22544027777778 F300
G1 X185.20760092438738 Y138.98402207042625 F300
G1 X185.20282526363172 Y140.53474000128602 F300
G1 X185.1950068499734 Y141.54568411040006 F300
G1 X185.1824112869598 Y142.47504613421893 F300
G1 X185.1642687757202 Y143.330302186214 F300
G1 X185.13755141933956 Y144.18449430230845 F300
G1 X185.10282886558895 Y144.9713384517678 F300
G1 X185.0596154513889 Y145.69750885416664 F300
G1 X185.01803532612237 Y146.24696995758927 F300
G1 X184.9702985073475 Y146.765829102316 F300
G1 X184.91625944982454 Y147.2566292679563 F300
G1 X184.85581687242797 Y147.72174202674898 F300
G1 X184.78399445818263 Y148.19339814624726 F300
G1 X184.70417564457017 Y148.64367855923666 F300
G1 X184.6161742974113 Y149.07468201713726 F300
G1 X184.51982462062756 Y149.48838372556582 F300
G1 X184.43310315385057 Y149.82106116785297 F300
G1 X184.33982561863087 Y150.14598357146917 F300
G1 X184.23978717439246 Y150.46402164929978 F300
G1 X184.13277959541517 Y150.77602333708114 F300
G1 X184.01859027777778 Y151.0828159722222 F300
G1 X183.86363615645462 Y151.46932169715458 F300
G1 X183.70000693295466 Y151.85113071387084 F300
G1 X183.52778584916481 Y152.22821677267564 F300
G1 X183.34704621873672 Y152.60055005115933 F300
G1 X183.15785172487682 Y152.9680966624917 F300
G1 X182.9602567282041 Y153.33081816739102 F300
G1 X182.75430658436218 Y153.688671090535 F300
G1 X182.53983933381355 Y154.04192515482038 F300
G1 X182.31738325521405 Y154.38971548784772 F300
G1 X182.08699280833682 Y154.73200240483786 F300
G1 X181.84871367810524 Y155.06874106554832 F300
G1 X181.6025830989502 Y155.39988100297035 F300
G1 X181.3486301879106 Y155.7253656577116 F300
G1 X181.08687628600825 Y156.04513191872428 F300
G1 X180.81794888630384 Y156.3584116211197 F300
G1 X180.54166374895328 Y156.66543101107646 F300
G1 X180.25804909644523 Y156.9661340960928 F300
G1 X179.96712543570956 Y157.26045810194452 F300
G1 X179.66890591197705 Y157.54833301726202 F300
G1 X179.36339667002892 Y157.82968114576008 F300
G1 X179.05059722222222 Y158.10441666666662 F300
G1 X178.79924046462455 Y158.3142427764519 F300
G1 X178.5405887206035 Y158.51902619806785 F300
G1 X178.27393256480548 Y158.71924292732277 F300
G1 X177.99854172433677 Y158.91537167071476 F300
G1 X177.7136633551955 Y159.10789550540122 F300
G1 X177.35557279580868 Y159.33647512182418 F300
G1 X176.9783973120632 Y159.56293595113453 F300
G1 X176.58032960405023 Y159.78809187942772 F300
G1 X176.15945267489715 Y160.01281705246913 F300
G1 X175.74095526635213 Y160.2246344308927 F300
G1 X175.29610934837592 Y160.43895957703586 F300
G1 X174.82271217101152 Y160.65667734295945 F300
G1 X174.3184140625 Y160.87877135416664 F300
G1 X173.64802233251785 Y161.16122067452318 F300
G1 X172.91759411857785 Y161.4558532588715 F300
G1 X172.120996399177 Y161.76534845679012 F300
G1 X171.32054073047587 Y162.06710908532958 F300
G1 X170.44835653373536 Y162.38830097332558 F300
G1 X169.49764856610082 Y162.73213840663578 F300
G1 X168.0369220713459 Y163.25275124996705 F300
G1 X166.37881944444445 Y163.83873124999997 F300
G1 X115.22604166666666 Y181.89266319444445 F300
G1 X113.33204833333335 Y182.55802960000005 F300
G1 X112.4967274399784 Y182.84526988747862 F300
G1 X111.77016 Y183.08767110555556 F300
G1 X111.2961297216952 Y183.2399848987705 F300
G1 X110.8593172357866 Y183.3746813086609 F300
G1 X110.45465166666666 Y183.49328864444445 F300
G1 X110.0480146981827 Y183.60509317846777 F300
G1 X109.66442000188482 Y183.70246236295975 F300
G1 X109.29979833333334 Y183.78658315 F300
G1 X108.93304894850034 Y183.86192507289167 F300
G1 X108.57420368994453 Y183.92591918683303 F300
G1 X108.21987499999999 Y183.97925555555554 F300
G1 X107.8230988867493 Y184.02885510168787 F300
G1 X107.42586360226981 Y184.0694023495514 F300
G1 X107.02822000982994 Y184.10092277076018 F300
G1 X106.63021780840918 Y184.1234329994706 F300
G1 X106.23190599593299 Y184.1369408159941 F300
G1 X105.83333333333333 Y184.14144513888886 F300
G1 X105.4347606707337 Y184.1369408159941 F300
G1 X105.03644885825747 Y184.12343299947065 F300
G1 X104.63844665683672 Y184.10092277076012 F300
G1 X104.24080306439686 Y184.0694023495514 F300
G1 X103.84356777991738 Y184.02885510168784 F300
G1 X103.44679166666667 Y183.97925555555554 F300
G1 X103.09246297672213 Y183.92591918683306 F300
G1 X102.73361771816633 Y183.86192507289167 F300
G1 X102.36686833333334 Y183.78658315 F300
G1 X102.00224666478185 Y183.70246236295978 F300
G1 X101.61865196848396 Y183.6050931784678 F300
G1 X101.21201500000001 Y183.49328864444448 F300
G1 X100.80734943088008 Y183.37468130866094 F300
G1 X100.37053694497146 Y183.23998489877053 F300
G1 X99.89650666666665 Y183.08767110555556 F300
G1 X99.16993922668827 Y182.84526988747857 F300
G1 X98.33461833333334 Y182.5580296 F300
G1 X96.440625 Y181.89266319444445 F300
G1 X45.28767083333333 Y163.83873124999997 F300
G1 X43.629584506764864 Y163.2527520965911 F300
G1 X42.16885641075103 Y162.7321384066358 F300
G1 X41.2181449799077 Y162.38830114931696 F300
G1 X40.34595528928025 Y162.0671092545748 F300
G1 X39.54549387860082 Y161.76534845679015 F300
G1 X38.74889040988934 Y161.4558525176952 F300
G1 X38.01846187544042 Y161.16121994943936 F300
G1 X37.34807621527778 Y160.87877135416664 F300
G1 X36.84378214960724 Y160.65667568370156 F300
G1 X36.37039607579156 Y160.43895737660043 F300
G1 X35.925568392676745 Y160.22463278327223 F300
G1 X35.50709639917696 Y160.01281705246913 F300
G1 X35.08624403521374 Y159.788089052097 F300
G1 X34.68821156283663 Y159.56293216676892 F300
G1 X34.3110818281821 Y159.33647226528046 F300
G1 X33.95304740869342 Y159.1078955054012 F300
G1 X33.66821386418516 Y158.91536877433202 F300
G1 X33.39287631042524 Y158.71923856470553 F300
G1 X33.12628187956757 Y158.51902181352006 F300
G1 X32.867700310115374 Y158.31423983674304 F300
G1 X32.616422222222226 Y158.10441666666662 F300
G1 X32.30351900400386 Y157.82967018299746 F300
G1 X31.997928802286 Y157.54831454125184 F300
G1 X31.69964930645546 Y157.26043571514074 F300
G1 X31.408684864237987 Y156.96611152331292 F300
G1 X31.1250468474716 Y156.66541206970834 F300
G1 X30.848754011083116 Y156.3584001921637 F300
G1 X30.579832844650213 Y156.0451319187243 F300
G1 X30.31808260284828 Y155.7253624951986 F300
G1 X30.064143109461835 Y155.39987577586393 F300
G1 X29.8180342381089 Y155.06873485543622 F300
G1 X29.5797836540766 Y154.7319962667631 F300
G1 X29.34942715271903 Y154.38971044058226 F300
G1 X29.12700898956192 Y154.04192217164376 F300
G1 X28.91258220164609 Y153.68867109053497 F300
G1 X28.70667313108535 Y153.33082124438215 F300
G1 X28.509117940809332 Y152.96810175974483 F300
G1 X28.319960792720245 Y152.6005561239498 F300
G1 X28.139254848129802 Y152.22822279511777 F300
G1 X27.967062581568747 Y151.8511356854236 F300
G1 X27.803456084855064 Y151.4693246487859 F300
G1 X27.64851736111111 Y151.0828159722222 F300
G1 X27.534285082764935 Y150.7760215559019 F300
G1 X27.427237605977542 Y150.46401899398944 F300
G1 X27.32716216102623 Y150.14598092860285 F300
G1 X27.233850367043004 Y149.82105941172077 F300
G1 X27.14709723829733 Y149.48838372556582 F300
G1 X27.050711527617846 Y149.074680541234 F300
G1 X26.96267751354536 Y148.6436766070769 F300
G1 X26.882829248016513 Y148.1933966910969 F300
G1 X26.8109804526749 Y147.72174202674898 F300
G1 X26.750515444047675 Y147.25662903023678 F300
G1 X26.696456357420224 Y146.76582882180227 F300
G1 X26.648701858249403 Y146.24696977486846 F300
G1 X26.607106336805558 Y145.69750885416667 F300
G1 X26.563876920738505 Y144.97133874228382 F300
G1 X26.52914149446036 Y144.1844946279636 F300
G1 X26.50241422325103 Y143.330302186214 F300
G1 X26.484264987520774 Y142.4750461306594 F300
G1 X26.47166475608622 Y141.54568411035288 F300
G1 X26.463843444573044 Y140.534740001286 F300
G1 X26.45906601355562 Y138.98402192690605 F300
G1 X26.458333333333332 Y137.22544027777778 F300
G1 X26.458333333333332 Y74.44052083333334 F300
G1 X26.459066012671606 Y72.68185185449146 F300
G1 X26.46384344457305 Y71.13105288708847 F300
G1 X26.471664754351767 Y70.12005559180739 F300
G1 X26.4842649848267 Y69.19064402751414 F300
G1 X26.502414223251034 Y68.3353420781893 F300
G1 X26.529141506353298 Y67.48110382679329 F300
G1 X26.563876936387242 Y66.69421837269854 F300
G1 X26.607106336805554 Y65.96801128472221 F300
G1 X26.648701931889207 Y65.4185221406625 F300
G1 X26.69645647194575 Y64.89963796082729 F300
G1 X26.750515542961878 Y64.40881561457668 F300
G1 X26.810980452674897 Y63.94368338477366 F300
G1 X26.882829517436342 Y63.472008218169734 F300
G1 X26.96267791646205 Y63.021711478487205 F300
G1 X27.05071186385873 Y62.590694271756185 F300
G1 X27.147097238297324 Y62.176981256430025 F300
G1 X27.233850799704385 Y61.84429639469643 F300
G1 X27.32716285732081 Y61.519368204984175 F300
G1 X27.42723835049823 Y61.201325925867735 F300
G1 X27.534285611824252 Y60.88932157670916 F300
G1 X27.648517361111107 Y60.58252777777775 F300
G1 X27.80345687210376 Y60.19601782414312 F300
G1 X27.96706395394196 Y59.81420752330209 F300
G1 X28.139256564419014 Y59.43712323677859 F300
G1 X28.319962575551983 Y59.06479489252961 F300
G1 X28.509119479549064 Y58.6972564767288 F300
G1 X28.706674084720976 Y58.33454652188564 F300
G1 X28.912582201646096 Y57.97670859053497 F300
G1 X29.127010335453917 Y57.62346757669823 F300
G1 X29.349429443794147 Y57.27569230971905 F300
G1 X29.579786456086115 Y56.9334224705742 F300
G1 X29.81803708810658 Y56.59670290585175 F300
G1 X30.06414552055658 Y56.26558410011176 F300
G1 X30.31808406885839 Y55.94012264254141 F300
G1 X30.579832844650213 Y55.620381687242784 F300
G1 X30.848755643352302 Y55.30714095188079 F300
G1 X31.125049570239554 Y55.00016027424252 F300
G1 X31.408688128109112 Y54.699495718799646 F300
G1 X31.699652560769565 Y54.40521016446948 F300
G1 X31.997931501271182 Y54.11737376157193 F300
G1 X32.303520612709725 Y53.83606438107128 F300
G1 X32.616422222222226 Y53.56136805555555 F300
G1 X32.867703816638084 Y53.35149265989193 F300
G1 X33.12628720590688 Y53.14666597012856 F300
G1 X33.392881710568204 Y52.94641157975208 F300
G1 X33.66821751813483 Y52.75025039001153 F300
G1 X33.95304740869342 Y52.55769894547325 F300
G1 X34.31108473886705 Y52.32909394868069 F300
G1 X34.688215509650185 Y52.102613676232956 F300
G1 X35.08624705012423 Y51.87744377920154 F300
G1 X35.50709639917696 Y51.65270961934155 F300
G1 X35.92556917388457 Y51.44089110580611 F300
G1 X36.370397116015056 Y51.22656844574469 F300
G1 X36.84378292964413 Y51.008856388537225 F300
G1 X37.34807621527778 Y50.78677083333331 F300
G1 X38.01846185880811 Y50.50433864639898 F300
G1 X38.748890385135184 Y50.20972636179804 F300
G1 X39.54549387860082 Y49.90025334362137 F300
G1 X40.3459548212316 Y49.598514993399974 F300
G1 X41.218144487585135 Y49.277345136179854 F300
G1 X42.16885641075102 Y48.93352790637857 F300
G1 X43.62958218241106 Y48.41293655021983 F300
G1 X45.28767083333333 Y47.826965277777745 F300
