G20
G90
G92 X0 Y0
M3 S70
M3 S70
G00 F3000 X7.7500 Y3.1944
M3 S250
G01 F1200 X7.7500 Y1.8403
M3 S250
G01 F1200 X7.7500 Y0.4861
M3 S250
G01 F1200 X6.3958 Y0.4861
M3 S250
G01 F1200 X5.0417 Y0.4861
M3 S250
G01 F1200 X5.0417 Y1.8403
M3 S250
G01 F1200 X5.0417 Y3.1944
M3 S250
G01 F1200 X6.3958 Y3.1944
M3 S250
G01 F1200 X7.7500 Y3.1944
M3 S70
G00 F3000 X7.7917 Y4.3889
M3 S250
G01 F1200 X6.4375 Y4.3889
M3 S250
G01 F1200 X5.0833 Y4.3889
M3 S250
G01 F1200 X5.0833 Y5.7431
M3 S250
G01 F1200 X5.0833 Y7.0972
M3 S250
G01 F1200 X6.4375 Y7.0972
M3 S250
G01 F1200 X7.7917 Y7.0972
M3 S250
G01 F1200 X7.7917 Y5.7431
M3 S250
G01 F1200 X7.7917 Y4.3889
M3 S70
G00 F3000 X3.0694 Y3.2222
M3 S250
G01 F1200 X3.0694 Y1.8681
M3 S250
G01 F1200 X3.0694 Y0.5139
M3 S250
G01 F1200 X1.7153 Y0.5139
M3 S250
G01 F1200 X0.3611 Y0.5139
M3 S250
G01 F1200 X0.3611 Y1.8681
M3 S250
G01 F1200 X0.3611 Y3.2222
M3 S250
G01 F1200 X1.7153 Y3.2222
M3 S250
G01 F1200 X3.0694 Y3.2222
M3 S70
G00 F3000 X1.7708 Y4.3611
M3 S250
G01 F1200 X0.4167 Y4.3611
M3 S250
G01 F1200 X0.4167 Y5.7153
M3 S250
G01 F1200 X0.4167 Y7.0694
M3 S250
G01 F1200 X1.7708 Y7.0694
M3 S250
G01 F1200 X3.1250 Y7.0694
M3 S250
G01 F1200 X3.1250 Y5.7153
M3 S250
G01 F1200 X3.1250 Y4.3611
M3 S250
G01 F1200 X1.7708 Y4.3611
M3 S70
M5
M2
