G20
G17
G90
G00 X7.2631 Y5.8910
G01 X4.1667 Y4.7810
G01 X4.1667 Y4.7810
G01 X1.0712 Y5.8946
G00 X1.0428 Y5.6147
G01 X1.0427 Y5.6101
G01 X1.0426 Y5.6055
G01 X1.0426 Y5.6008
G01 X1.0425 Y5.5961
G01 X1.0424 Y5.5914
G01 X1.0424 Y5.5866
G01 X1.0423 Y5.5819
G01 X1.0422 Y5.5770
G01 X1.0422 Y5.5722
G01 X1.0421 Y5.5673
G01 X1.0421 Y5.5624
G01 X1.0420 Y5.5574
G01 X1.0420 Y5.5524
G01 X1.0420 Y5.5473
G01 X1.0419 Y5.5423
G01 X1.0419 Y5.5372
G01 X1.0419 Y5.5320
G01 X1.0419 Y5.5268
G01 X1.0418 Y5.5216
G01 X1.0418 Y5.5163
G01 X1.0418 Y5.5110
G01 X1.0418 Y5.5057
G01 X1.0418 Y5.5003
G01 X1.0417 Y5.4949
G01 X1.0417 Y5.4894
G01 X1.0417 Y5.4839
G01 X1.0417 Y5.4784
G01 X1.0417 Y5.4728
G01 X1.0417 Y5.4672
G01 X1.0417 Y5.4615
G01 X1.0417 Y5.4558
G01 X1.0417 Y5.4501
G01 X1.0417 Y5.4443
G01 X1.0417 Y5.4384
G01 X1.0417 Y5.4326
G01 X1.0417 Y5.4267
G01 X1.0417 Y5.4207
G01 X1.0417 Y5.4147
G01 X1.0417 Y5.4087
G01 X1.0417 Y5.4026
G01 X1.0417 Y2.9307
G01 X1.0417 Y2.9246
G01 X1.0417 Y2.9186
G01 X1.0417 Y2.9126
G01 X1.0417 Y2.9066
G01 X1.0417 Y2.9007
G01 X1.0417 Y2.8949
G01 X1.0417 Y2.8890
G01 X1.0417 Y2.8832
G01 X1.0417 Y2.8775
G01 X1.0417 Y2.8718
G01 X1.0417 Y2.8661
G01 X1.0417 Y2.8605
G01 X1.0417 Y2.8549
G01 X1.0417 Y2.8494
G01 X1.0417 Y2.8439
G01 X1.0417 Y2.8384
G01 X1.0418 Y2.8330
G01 X1.0418 Y2.8276
G01 X1.0418 Y2.8223
G01 X1.0418 Y2.8170
G01 X1.0418 Y2.8117
G01 X1.0419 Y2.8065
G01 X1.0419 Y2.8013
G01 X1.0419 Y2.7961
G01 X1.0419 Y2.7910
G01 X1.0420 Y2.7860
G01 X1.0420 Y2.7809
G01 X1.0420 Y2.7759
G01 X1.0421 Y2.7709
G01 X1.0421 Y2.7660
G01 X1.0422 Y2.7611
G01 X1.0422 Y2.7563
G01 X1.0423 Y2.7514
G01 X1.0424 Y2.7467
G01 X1.0424 Y2.7419
G01 X1.0425 Y2.7372
G01 X1.0426 Y2.7325
G01 X1.0426 Y2.7278
G01 X1.0427 Y2.7232
G01 X1.0428 Y2.7186
G01 X1.0429 Y2.7141
G01 X1.0430 Y2.7096
G01 X1.0431 Y2.7051
G01 X1.0432 Y2.7006
G01 X1.0433 Y2.6962
G01 X1.0434 Y2.6918
G01 X1.0435 Y2.6875
G01 X1.0436 Y2.6831
G01 X1.0437 Y2.6788
G01 X1.0438 Y2.6746
G01 X1.0440 Y2.6703
G01 X1.0441 Y2.6661
G01 X1.0443 Y2.6620
G01 X1.0444 Y2.6578
G01 X1.0446 Y2.6537
G01 X1.0447 Y2.6496
G01 X1.0449 Y2.6456
G01 X1.0451 Y2.6415
G01 X1.0453 Y2.6375
G01 X1.0454 Y2.6336
G01 X1.0456 Y2.6296
G01 X1.0458 Y2.6257
G01 X1.0460 Y2.6218
G01 X1.0462 Y2.6179
G01 X1.0465 Y2.6141
G01 X1.0467 Y2.6103
G01 X1.0469 Y2.6065
G01 X1.0472 Y2.6028
G01 X1.0474 Y2.5990
G01 X1.0477 Y2.5953
G01 X1.0479 Y2.5916
G01 X1.0482 Y2.5880
G01 X1.0485 Y2.5843
G01 X1.0487 Y2.5807
G01 X1.0490 Y2.5771
G01 X1.0493 Y2.5736
G01 X1.0496 Y2.5700
G01 X1.0499 Y2.5665
G01 X1.0503 Y2.5630
G01 X1.0506 Y2.5596
G01 X1.0509 Y2.5561
G01 X1.0513 Y2.5527
G01 X1.0516 Y2.5493
G01 X1.0520 Y2.5459
G01 X1.0524 Y2.5426
G01 X1.0528 Y2.5392
G01 X1.0532 Y2.5359
G01 X1.0536 Y2.5326
G01 X1.0540 Y2.5293
G01 X1.0544 Y2.5261
G01 X1.0548 Y2.5228
G01 X1.0553 Y2.5196
G01 X1.0557 Y2.5164
G01 X1.0562 Y2.5132
G01 X1.0566 Y2.5101
G01 X1.0571 Y2.5069
G01 X1.0576 Y2.5038
G01 X1.0581 Y2.5007
G01 X1.0586 Y2.4976
G01 X1.0591 Y2.4945
G01 X1.0596 Y2.4915
G01 X1.0602 Y2.4884
G01 X1.0607 Y2.4854
G01 X1.0613 Y2.4824
G01 X1.0619 Y2.4794
G01 X1.0624 Y2.4764
G01 X1.0630 Y2.4735
G01 X1.0636 Y2.4705
G01 X1.0643 Y2.4676
G01 X1.0649 Y2.4647
G01 X1.0655 Y2.4618
G01 X1.0662 Y2.4589
G01 X1.0668 Y2.4560
G01 X1.0675 Y2.4531
G01 X1.0682 Y2.4503
G01 X1.0689 Y2.4474
G01 X1.0696 Y2.4446
G01 X1.0703 Y2.4418
G01 X1.0711 Y2.4390
G01 X1.0718 Y2.4362
G01 X1.0726 Y2.4334
G01 X1.0733 Y2.4307
G01 X1.0741 Y2.4279
G01 X1.0749 Y2.4252
G01 X1.0757 Y2.4225
G01 X1.0766 Y2.4197
G01 X1.0774 Y2.4170
G01 X1.0783 Y2.4143
G01 X1.0791 Y2.4116
G01 X1.0800 Y2.4089
G01 X1.0809 Y2.4063
G01 X1.0818 Y2.4036
G01 X1.0827 Y2.4009
G01 X1.0836 Y2.3983
G01 X1.0846 Y2.3956
G01 X1.0856 Y2.3930
G01 X1.0865 Y2.3904
G01 X1.0875 Y2.3878
G01 X1.0885 Y2.3851
G01 X1.0900 Y2.3814
G01 X1.0915 Y2.3777
G01 X1.0929 Y2.3740
G01 X1.0945 Y2.3703
G01 X1.0960 Y2.3666
G01 X1.0976 Y2.3629
G01 X1.0991 Y2.3593
G01 X1.1007 Y2.3556
G01 X1.1024 Y2.3520
G01 X1.1040 Y2.3484
G01 X1.1057 Y2.3447
G01 X1.1073 Y2.3411
G01 X1.1090 Y2.3375
G01 X1.1108 Y2.3339
G01 X1.1125 Y2.3303
G01 X1.1143 Y2.3268
G01 X1.1160 Y2.3232
G01 X1.1178 Y2.3197
G01 X1.1197 Y2.3161
G01 X1.1215 Y2.3126
G01 X1.1234 Y2.3091
G01 X1.1253 Y2.3056
G01 X1.1272 Y2.3021
G01 X1.1291 Y2.2986
G01 X1.1310 Y2.2952
G01 X1.1330 Y2.2917
G01 X1.1349 Y2.2883
G01 X1.1369 Y2.2848
G01 X1.1390 Y2.2814
G01 X1.1410 Y2.2780
G01 X1.1431 Y2.2746
G01 X1.1451 Y2.2712
G01 X1.1472 Y2.2678
G01 X1.1493 Y2.2645
G01 X1.1515 Y2.2611
G01 X1.1536 Y2.2578
G01 X1.1558 Y2.2545
G01 X1.1580 Y2.2512
G01 X1.1602 Y2.2479
G01 X1.1624 Y2.2446
G01 X1.1647 Y2.2413
G01 X1.1669 Y2.2381
G01 X1.1692 Y2.2348
G01 X1.1715 Y2.2316
G01 X1.1738 Y2.2284
G01 X1.1762 Y2.2252
G01 X1.1785 Y2.2220
G01 X1.1809 Y2.2188
G01 X1.1833 Y2.2156
G01 X1.1857 Y2.2125
G01 X1.1881 Y2.2093
G01 X1.1906 Y2.2062
G01 X1.1930 Y2.2031
G01 X1.1955 Y2.2000
G01 X1.1980 Y2.1969
G01 X1.2005 Y2.1938
G01 X1.2031 Y2.1908
G01 X1.2056 Y2.1878
G01 X1.2082 Y2.1847
G01 X1.2108 Y2.1817
G01 X1.2134 Y2.1787
G01 X1.2160 Y2.1757
G01 X1.2187 Y2.1728
G01 X1.2213 Y2.1698
G01 X1.2240 Y2.1669
G01 X1.2267 Y2.1640
G01 X1.2294 Y2.1610
G01 X1.2321 Y2.1581
G01 X1.2349 Y2.1553
G01 X1.2376 Y2.1524
G01 X1.2404 Y2.1496
G01 X1.2432 Y2.1467
G01 X1.2460 Y2.1439
G01 X1.2489 Y2.1411
G01 X1.2517 Y2.1383
G01 X1.2546 Y2.1355
G01 X1.2575 Y2.1328
G01 X1.2603 Y2.1301
G01 X1.2633 Y2.1273
G01 X1.2662 Y2.1246
G01 X1.2691 Y2.1219
G01 X1.2721 Y2.1193
G01 X1.2751 Y2.1166
G01 X1.2781 Y2.1140
G01 X1.2811 Y2.1113
G01 X1.2841 Y2.1087
G01 X1.2862 Y2.1069
G01 X1.2884 Y2.1051
G01 X1.2905 Y2.1033
G01 X1.2927 Y2.1015
G01 X1.2949 Y2.0997
G01 X1.2971 Y2.0980
G01 X1.2993 Y2.0962
G01 X1.3015 Y2.0945
G01 X1.3037 Y2.0928
G01 X1.3060 Y2.0910
G01 X1.3082 Y2.0893
G01 X1.3105 Y2.0876
G01 X1.3127 Y2.0859
G01 X1.3150 Y2.0842
G01 X1.3173 Y2.0826
G01 X1.3197 Y2.0809
G01 X1.3220 Y2.0792
G01 X1.3244 Y2.0776
G01 X1.3267 Y2.0760
G01 X1.3291 Y2.0743
G01 X1.3315 Y2.0727
G01 X1.3339 Y2.0711
G01 X1.3363 Y2.0695
G01 X1.3388 Y2.0679
G01 X1.3412 Y2.0663
G01 X1.3437 Y2.0647
G01 X1.3462 Y2.0631
G01 X1.3487 Y2.0615
G01 X1.3512 Y2.0600
G01 X1.3538 Y2.0584
G01 X1.3563 Y2.0568
G01 X1.3589 Y2.0553
G01 X1.3615 Y2.0537
G01 X1.3641 Y2.0522
G01 X1.3667 Y2.0507
G01 X1.3694 Y2.0491
G01 X1.3721 Y2.0476
G01 X1.3748 Y2.0461
G01 X1.3775 Y2.0446
G01 X1.3802 Y2.0431
G01 X1.3829 Y2.0416
G01 X1.3857 Y2.0400
G01 X1.3885 Y2.0385
G01 X1.3913 Y2.0371
G01 X1.3941 Y2.0356
G01 X1.3970 Y2.0341
G01 X1.3998 Y2.0326
G01 X1.4027 Y2.0311
G01 X1.4056 Y2.0296
G01 X1.4086 Y2.0281
G01 X1.4115 Y2.0267
G01 X1.4145 Y2.0252
G01 X1.4175 Y2.0237
G01 X1.4205 Y2.0222
G01 X1.4236 Y2.0208
G01 X1.4266 Y2.0193
G01 X1.4297 Y2.0178
G01 X1.4328 Y2.0164
G01 X1.4360 Y2.0149
G01 X1.4391 Y2.0134
G01 X1.4423 Y2.0120
G01 X1.4455 Y2.0105
G01 X1.4488 Y2.0090
G01 X1.4520 Y2.0076
G01 X1.4553 Y2.0061
G01 X1.4586 Y2.0046
G01 X1.4619 Y2.0032
G01 X1.4653 Y2.0017
G01 X1.4687 Y2.0002
G01 X1.4721 Y1.9987
G01 X1.4755 Y1.9973
G01 X1.4790 Y1.9958
G01 X1.4825 Y1.9943
G01 X1.4860 Y1.9928
G01 X1.4896 Y1.9914
G01 X1.4931 Y1.9899
G01 X1.4967 Y1.9884
G01 X1.5004 Y1.9869
G01 X1.5040 Y1.9854
G01 X1.5077 Y1.9839
G01 X1.5114 Y1.9824
G01 X1.5152 Y1.9809
G01 X1.5189 Y1.9794
G01 X1.5227 Y1.9779
G01 X1.5266 Y1.9764
G01 X1.5304 Y1.9748
G01 X1.5343 Y1.9733
G01 X1.5382 Y1.9718
G01 X1.5422 Y1.9703
G01 X1.5461 Y1.9687
G01 X1.5502 Y1.9672
G01 X1.5542 Y1.9656
G01 X1.5583 Y1.9641
G01 X1.5624 Y1.9625
G01 X1.5665 Y1.9609
G01 X1.5707 Y1.9594
G01 X1.5749 Y1.9578
G01 X1.5791 Y1.9562
G01 X1.5834 Y1.9546
G01 X1.5877 Y1.9530
G01 X1.5920 Y1.9514
G01 X1.5963 Y1.9498
G01 X1.6007 Y1.9481
G01 X1.6052 Y1.9465
G01 X1.6096 Y1.9449
G01 X1.6141 Y1.9432
G01 X1.6187 Y1.9416
G01 X1.6232 Y1.9399
G01 X1.6278 Y1.9382
G01 X1.6325 Y1.9365
G01 X1.6371 Y1.9348
G01 X1.6418 Y1.9331
G01 X1.6466 Y1.9314
G01 X1.6513 Y1.9297
G01 X1.6562 Y1.9280
G01 X1.6610 Y1.9262
G01 X1.6659 Y1.9245
G01 X1.6708 Y1.9227
G01 X1.6758 Y1.9209
G01 X1.6808 Y1.9192
G01 X1.6858 Y1.9174
G01 X1.6909 Y1.9156
G01 X1.6960 Y1.9137
G01 X1.7011 Y1.9119
G01 X1.7063 Y1.9101
G01 X1.7115 Y1.9082
G01 X1.7168 Y1.9063
G01 X1.7221 Y1.9045
G01 X1.7274 Y1.9026
G01 X1.7328 Y1.9007
G01 X1.7382 Y1.8988
G01 X1.7437 Y1.8968
G01 X1.7492 Y1.8949
G01 X1.7547 Y1.8929
G01 X1.7603 Y1.8910
G01 X1.7659 Y1.8890
G01 X1.7715 Y1.8870
G01 X1.7772 Y1.8850
G01 X1.7830 Y1.8830
G01 X3.7969 Y1.1722
G01 X3.8025 Y1.1702
G01 X3.8080 Y1.1682
G01 X3.8134 Y1.1663
G01 X3.8188 Y1.1644
G01 X3.8241 Y1.1626
G01 X3.8293 Y1.1607
G01 X3.8345 Y1.1589
G01 X3.8396 Y1.1571
G01 X3.8446 Y1.1553
G01 X3.8495 Y1.1536
G01 X3.8544 Y1.1519
G01 X3.8592 Y1.1502
G01 X3.8640 Y1.1486
G01 X3.8687 Y1.1469
G01 X3.8733 Y1.1453
G01 X3.8779 Y1.1437
G01 X3.8824 Y1.1422
G01 X3.8868 Y1.1406
G01 X3.8912 Y1.1391
G01 X3.8955 Y1.1376
G01 X3.8998 Y1.1362
G01 X3.9040 Y1.1348
G01 X3.9082 Y1.1333
G01 X3.9123 Y1.1320
G01 X3.9164 Y1.1306
G01 X3.9204 Y1.1292
G01 X3.9244 Y1.1279
G01 X3.9283 Y1.1266
G01 X3.9322 Y1.1254
G01 X3.9360 Y1.1241
G01 X3.9398 Y1.1229
G01 X3.9435 Y1.1217
G01 X3.9472 Y1.1205
G01 X3.9509 Y1.1193
G01 X3.9545 Y1.1182
G01 X3.9581 Y1.1171
G01 X3.9616 Y1.1160
G01 X3.9651 Y1.1149
G01 X3.9686 Y1.1139
G01 X3.9720 Y1.1129
G01 X3.9754 Y1.1118
G01 X3.9787 Y1.1109
G01 X3.9821 Y1.1099
G01 X3.9854 Y1.1090
G01 X3.9887 Y1.1080
G01 X3.9919 Y1.1071
G01 X3.9951 Y1.1062
G01 X3.9983 Y1.1054
G01 X4.0015 Y1.1045
G01 X4.0046 Y1.1037
G01 X4.0077 Y1.1029
G01 X4.0108 Y1.1021
G01 X4.0139 Y1.1014
G01 X4.0170 Y1.1006
G01 X4.0200 Y1.0999
G01 X4.0230 Y1.0992
G01 X4.0260 Y1.0985
G01 X4.0290 Y1.0979
G01 X4.0320 Y1.0972
G01 X4.0349 Y1.0966
G01 X4.0379 Y1.0960
G01 X4.0408 Y1.0954
G01 X4.0437 Y1.0948
G01 X4.0467 Y1.0942
G01 X4.0496 Y1.0937
G01 X4.0525 Y1.0932
G01 X4.0554 Y1.0927
G01 X4.0583 Y1.0922
G01 X4.0612 Y1.0917
G01 X4.0640 Y1.0913
G01 X4.0669 Y1.0908
G01 X4.0698 Y1.0904
G01 X4.0727 Y1.0900
G01 X4.0767 Y1.0895
G01 X4.0807 Y1.0890
G01 X4.0847 Y1.0885
G01 X4.0886 Y1.0880
G01 X4.0926 Y1.0876
G01 X4.0966 Y1.0872
G01 X4.1006 Y1.0868
G01 X4.1046 Y1.0864
G01 X4.1086 Y1.0860
G01 X4.1126 Y1.0857
G01 X4.1166 Y1.0854
G01 X4.1206 Y1.0851
G01 X4.1246 Y1.0849
G01 X4.1286 Y1.0847
G01 X4.1326 Y1.0845
G01 X4.1366 Y1.0843
G01 X4.1406 Y1.0841
G01 X4.1446 Y1.0840
G01 X4.1486 Y1.0839
G01 X4.1526 Y1.0838
G01 X4.1566 Y1.0837
G01 X4.1607 Y1.0836
G01 X4.1647 Y1.0836
G01 X4.1687 Y1.0836
G01 X4.1727 Y1.0836
G01 X4.1767 Y1.0837
G01 X4.1807 Y1.0838
G01 X4.1847 Y1.0839
G01 X4.1887 Y1.0840
G01 X4.1927 Y1.0841
G01 X4.1967 Y1.0843
G01 X4.2007 Y1.0845
G01 X4.2047 Y1.0847
G01 X4.2087 Y1.0849
G01 X4.2127 Y1.0851
G01 X4.2167 Y1.0854
G01 X4.2207 Y1.0857
G01 X4.2247 Y1.0860
G01 X4.2287 Y1.0864
G01 X4.2327 Y1.0868
G01 X4.2367 Y1.0872
G01 X4.2407 Y1.0876
G01 X4.2447 Y1.0880
G01 X4.2487 Y1.0885
G01 X4.2527 Y1.0890
G01 X4.2566 Y1.0895
G01 X4.2606 Y1.0900
G01 X4.2635 Y1.0904
G01 X4.2664 Y1.0908
G01 X4.2693 Y1.0913
G01 X4.2722 Y1.0917
G01 X4.2751 Y1.0922
G01 X4.2780 Y1.0927
G01 X4.2809 Y1.0932
G01 X4.2838 Y1.0937
G01 X4.2867 Y1.0942
G01 X4.2896 Y1.0948
G01 X4.2925 Y1.0954
G01 X4.2955 Y1.0960
G01 X4.2984 Y1.0966
G01 X4.3014 Y1.0972
G01 X4.3043 Y1.0979
G01 X4.3073 Y1.0985
G01 X4.3103 Y1.0992
G01 X4.3133 Y1.0999
G01 X4.3164 Y1.1006
G01 X4.3194 Y1.1014
G01 X4.3225 Y1.1021
G01 X4.3256 Y1.1029
G01 X4.3287 Y1.1037
G01 X4.3319 Y1.1045
G01 X4.3350 Y1.1054
G01 X4.3382 Y1.1062
G01 X4.3414 Y1.1071
G01 X4.3447 Y1.1080
G01 X4.3480 Y1.1090
G01 X4.3513 Y1.1099
G01 X4.3546 Y1.1109
G01 X4.3579 Y1.1118
G01 X4.3613 Y1.1129
G01 X4.3648 Y1.1139
G01 X4.3682 Y1.1149
G01 X4.3717 Y1.1160
G01 X4.3753 Y1.1171
G01 X4.3789 Y1.1182
G01 X4.3825 Y1.1193
G01 X4.3861 Y1.1205
G01 X4.3898 Y1.1217
G01 X4.3936 Y1.1229
G01 X4.3973 Y1.1241
G01 X4.4012 Y1.1254
G01 X4.4050 Y1.1266
G01 X4.4090 Y1.1279
G01 X4.4129 Y1.1292
G01 X4.4169 Y1.1306
G01 X4.4210 Y1.1320
G01 X4.4251 Y1.1333
G01 X4.4293 Y1.1348
G01 X4.4335 Y1.1362
G01 X4.4378 Y1.1376
G01 X4.4421 Y1.1391
G01 X4.4465 Y1.1406
G01 X4.4510 Y1.1422
G01 X4.4555 Y1.1437
G01 X4.4600 Y1.1453
G01 X4.4647 Y1.1469
G01 X4.4694 Y1.1486
G01 X4.4741 Y1.1502
G01 X4.4789 Y1.1519
G01 X4.4838 Y1.1536
G01 X4.4888 Y1.1553
G01 X4.4938 Y1.1571
G01 X4.4989 Y1.1589
G01 X4.5040 Y1.1607
G01 X4.5092 Y1.1626
G01 X4.5145 Y1.1644
G01 X4.5199 Y1.1663
G01 X4.5253 Y1.1682
G01 X4.5309 Y1.1702
G01 X4.5365 Y1.1722
G01 X6.5503 Y1.8830
G01 X6.5561 Y1.8850
G01 X6.5618 Y1.8870
G01 X6.5674 Y1.8890
G01 X6.5731 Y1.8910
G01 X6.5786 Y1.8929
G01 X6.5842 Y1.8949
G01 X6.5897 Y1.8968
G01 X6.5951 Y1.8988
G01 X6.6005 Y1.9007
G01 X6.6059 Y1.9026
G01 X6.6113 Y1.9045
G01 X6.6166 Y1.9063
G01 X6.6218 Y1.9082
G01 X6.6270 Y1.9101
G01 X6.6322 Y1.9119
G01 X6.6374 Y1.9137
G01 X6.6425 Y1.9156
G01 X6.6475 Y1.9174
G01 X6.6526 Y1.9192
G01 X6.6576 Y1.9209
G01 X6.6625 Y1.9227
G01 X6.6674 Y1.9245
G01 X6.6723 Y1.9262
G01 X6.6772 Y1.9280
G01 X6.6820 Y1.9297
G01 X6.6868 Y1.9314
G01 X6.6915 Y1.9331
G01 X6.6962 Y1.9348
G01 X6.7009 Y1.9365
G01 X6.7055 Y1.9382
G01 X6.7101 Y1.9399
G01 X6.7147 Y1.9416
G01 X6.7192 Y1.9432
G01 X6.7237 Y1.9449
G01 X6.7282 Y1.9465
G01 X6.7326 Y1.9481
G01 X6.7370 Y1.9498
G01 X6.7413 Y1.9514
G01 X6.7457 Y1.9530
G01 X6.7500 Y1.9546
G01 X6.7542 Y1.9562
G01 X6.7585 Y1.9578
G01 X6.7627 Y1.9594
G01 X6.7668 Y1.9609
G01 X6.7710 Y1.9625
G01 X6.7751 Y1.9641
G01 X6.7791 Y1.9656
G01 X6.7832 Y1.9672
G01 X6.7872 Y1.9687
G01 X6.7912 Y1.9703
G01 X6.7951 Y1.9718
G01 X6.7990 Y1.9733
G01 X6.8029 Y1.9748
G01 X6.8068 Y1.9764
G01 X6.8106 Y1.9779
G01 X6.8144 Y1.9794
G01 X6.8182 Y1.9809
G01 X6.8219 Y1.9824
G01 X6.8256 Y1.9839
G01 X6.8293 Y1.9854
G01 X6.8330 Y1.9869
G01 X6.8366 Y1.9884
G01 X6.8402 Y1.9899
G01 X6.8438 Y1.9914
G01 X6.8473 Y1.9928
G01 X6.8508 Y1.9943
G01 X6.8543 Y1.9958
G01 X6.8578 Y1.9973
G01 X6.8612 Y1.9987
G01 X6.8646 Y2.0002
G01 X6.8680 Y2.0017
G01 X6.8714 Y2.0032
G01 X6.8747 Y2.0046
G01 X6.8780 Y2.0061
G01 X6.8813 Y2.0076
G01 X6.8846 Y2.0090
G01 X6.8878 Y2.0105
G01 X6.8910 Y2.0120
G01 X6.8942 Y2.0134
G01 X6.8974 Y2.0149
G01 X6.9005 Y2.0164
G01 X6.9036 Y2.0178
G01 X6.9067 Y2.0193
G01 X6.9098 Y2.0208
G01 X6.9128 Y2.0222
G01 X6.9158 Y2.0237
G01 X6.9188 Y2.0252
G01 X6.9218 Y2.0267
G01 X6.9248 Y2.0281
G01 X6.9277 Y2.0296
G01 X6.9306 Y2.0311
G01 X6.9335 Y2.0326
G01 X6.9364 Y2.0341
G01 X6.9392 Y2.0356
G01 X6.9420 Y2.0371
G01 X6.9448 Y2.0385
G01 X6.9476 Y2.0400
G01 X6.9504 Y2.0416
G01 X6.9531 Y2.0431
G01 X6.9559 Y2.0446
G01 X6.9586 Y2.0461
G01 X6.9613 Y2.0476
G01 X6.9639 Y2.0491
G01 X6.9666 Y2.0507
G01 X6.9692 Y2.0522
G01 X6.9718 Y2.0537
G01 X6.9744 Y2.0553
G01 X6.9770 Y2.0568
G01 X6.9796 Y2.0584
G01 X6.9821 Y2.0600
G01 X6.9846 Y2.0615
G01 X6.9871 Y2.0631
G01 X6.9896 Y2.0647
G01 X6.9921 Y2.0663
G01 X6.9946 Y2.0679
G01 X6.9970 Y2.0695
G01 X6.9994 Y2.0711
G01 X7.0018 Y2.0727
G01 X7.0042 Y2.0743
G01 X7.0066 Y2.0760
G01 X7.0090 Y2.0776
G01 X7.0113 Y2.0792
G01 X7.0137 Y2.0809
G01 X7.0160 Y2.0826
G01 X7.0183 Y2.0842
G01 X7.0206 Y2.0859
G01 X7.0229 Y2.0876
G01 X7.0251 Y2.0893
G01 X7.0274 Y2.0910
G01 X7.0296 Y2.0928
G01 X7.0319 Y2.0945
G01 X7.0341 Y2.0962
G01 X7.0363 Y2.0980
G01 X7.0385 Y2.0997
G01 X7.0406 Y2.1015
G01 X7.0428 Y2.1033
G01 X7.0450 Y2.1051
G01 X7.0471 Y2.1069
G01 X7.0492 Y2.1087
G01 X7.0523 Y2.1113
G01 X7.0553 Y2.1140
G01 X7.0583 Y2.1166
G01 X7.0612 Y2.1193
G01 X7.0642 Y2.1219
G01 X7.0672 Y2.1246
G01 X7.0701 Y2.1273
G01 X7.0730 Y2.1301
G01 X7.0759 Y2.1328
G01 X7.0788 Y2.1355
G01 X7.0816 Y2.1383
G01 X7.0845 Y2.1411
G01 X7.0873 Y2.1439
G01 X7.0901 Y2.1467
G01 X7.0929 Y2.1496
G01 X7.0957 Y2.1524
G01 X7.0985 Y2.1553
G01 X7.1012 Y2.1581
G01 X7.1039 Y2.1610
G01 X7.1066 Y2.1640
G01 X7.1093 Y2.1669
G01 X7.1120 Y2.1698
G01 X7.1147 Y2.1728
G01 X7.1173 Y2.1757
G01 X7.1199 Y2.1787
G01 X7.1225 Y2.1817
G01 X7.1251 Y2.1847
G01 X7.1277 Y2.1878
G01 X7.1303 Y2.1908
G01 X7.1328 Y2.1938
G01 X7.1353 Y2.1969
G01 X7.1378 Y2.2000
G01 X7.1403 Y2.2031
G01 X7.1428 Y2.2062
G01 X7.1452 Y2.2093
G01 X7.1476 Y2.2125
G01 X7.1500 Y2.2156
G01 X7.1524 Y2.2188
G01 X7.1548 Y2.2220
G01 X7.1572 Y2.2252
G01 X7.1595 Y2.2284
G01 X7.1618 Y2.2316
G01 X7.1641 Y2.2348
G01 X7.1664 Y2.2381
G01 X7.1687 Y2.2413
G01 X7.1709 Y2.2446
G01 X7.1731 Y2.2479
G01 X7.1754 Y2.2512
G01 X7.1775 Y2.2545
G01 X7.1797 Y2.2578
G01 X7.1819 Y2.2611
G01 X7.1840 Y2.2645
G01 X7.1861 Y2.2678
G01 X7.1882 Y2.2712
G01 X7.1903 Y2.2746
G01 X7.1923 Y2.2780
G01 X7.1944 Y2.2814
G01 X7.1964 Y2.2848
G01 X7.1984 Y2.2883
G01 X7.2004 Y2.2917
G01 X7.2023 Y2.2952
G01 X7.2043 Y2.2986
G01 X7.2062 Y2.3021
G01 X7.2081 Y2.3056
G01 X7.2100 Y2.3091
G01 X7.2118 Y2.3126
G01 X7.2137 Y2.3161
G01 X7.2155 Y2.3197
G01 X7.2173 Y2.3232
G01 X7.2191 Y2.3268
G01 X7.2208 Y2.3303
G01 X7.2226 Y2.3339
G01 X7.2243 Y2.3375
G01 X7.2260 Y2.3411
G01 X7.2277 Y2.3447
G01 X7.2294 Y2.3484
G01 X7.2310 Y2.3520
G01 X7.2326 Y2.3556
G01 X7.2342 Y2.3593
G01 X7.2358 Y2.3629
G01 X7.2373 Y2.3666
G01 X7.2389 Y2.3703
G01 X7.2404 Y2.3740
G01 X7.2419 Y2.3777
G01 X7.2434 Y2.3814
G01 X7.2448 Y2.3851
G01 X7.2458 Y2.3878
G01 X7.2468 Y2.3904
G01 X7.2478 Y2.3930
G01 X7.2488 Y2.3956
G01 X7.2497 Y2.3983
G01 X7.2506 Y2.4009
G01 X7.2516 Y2.4036
G01 X7.2525 Y2.4063
G01 X7.2533 Y2.4089
G01 X7.2542 Y2.4116
G01 X7.2551 Y2.4143
G01 X7.2559 Y2.4170
G01 X7.2568 Y2.4197
G01 X7.2576 Y2.4225
G01 X7.2584 Y2.4252
G01 X7.2592 Y2.4279
G01 X7.2600 Y2.4307
G01 X7.2608 Y2.4334
G01 X7.2615 Y2.4362
G01 X7.2623 Y2.4390
G01 X7.2630 Y2.4418
G01 X7.2637 Y2.4446
G01 X7.2644 Y2.4474
G01 X7.2651 Y2.4503
G01 X7.2658 Y2.4531
G01 X7.2665 Y2.4560
G01 X7.2672 Y2.4589
G01 X7.2678 Y2.4618
G01 X7.2685 Y2.4647
G01 X7.2691 Y2.4676
G01 X7.2697 Y2.4705
G01 X7.2703 Y2.4735
G01 X7.2709 Y2.4764
G01 X7.2715 Y2.4794
G01 X7.2720 Y2.4824
G01 X7.2726 Y2.4854
G01 X7.2732 Y2.4884
G01 X7.2737 Y2.4915
G01 X7.2742 Y2.4945
G01 X7.2747 Y2.4976
G01 X7.2753 Y2.5007
G01 X7.2757 Y2.5038
G01 X7.2762 Y2.5069
G01 X7.2767 Y2.5101
G01 X7.2772 Y2.5132
G01 X7.2776 Y2.5164
G01 X7.2781 Y2.5196
G01 X7.2785 Y2.5228
G01 X7.2790 Y2.5261
G01 X7.2794 Y2.5293
G01 X7.2798 Y2.5326
G01 X7.2802 Y2.5359
G01 X7.2806 Y2.5392
G01 X7.2810 Y2.5426
G01 X7.2813 Y2.5459
G01 X7.2817 Y2.5493
G01 X7.2821 Y2.5527
G01 X7.2824 Y2.5561
G01 X7.2827 Y2.5596
G01 X7.2831 Y2.5630
G01 X7.2834 Y2.5665
G01 X7.2837 Y2.5700
G01 X7.2840 Y2.5736
G01 X7.2843 Y2.5771
G01 X7.2846 Y2.5807
G01 X7.2849 Y2.5843
G01 X7.2852 Y2.5880
G01 X7.2854 Y2.5916
G01 X7.2857 Y2.5953
G01 X7.2859 Y2.5990
G01 X7.2862 Y2.6028
G01 X7.2864 Y2.6065
G01 X7.2867 Y2.6103
G01 X7.2869 Y2.6141
G01 X7.2871 Y2.6179
G01 X7.2873 Y2.6218
G01 X7.2875 Y2.6257
G01 X7.2877 Y2.6296
G01 X7.2879 Y2.6336
G01 X7.2881 Y2.6375
G01 X7.2883 Y2.6415
G01 X7.2884 Y2.6456
G01 X7.2886 Y2.6496
G01 X7.2888 Y2.6537
G01 X7.2889 Y2.6578
G01 X7.2891 Y2.6620
G01 X7.2892 Y2.6661
G01 X7.2894 Y2.6703
G01 X7.2895 Y2.6746
G01 X7.2896 Y2.6788
G01 X7.2897 Y2.6831
G01 X7.2899 Y2.6875
G01 X7.2900 Y2.6918
G01 X7.2901 Y2.6962
G01 X7.2902 Y2.7006
G01 X7.2903 Y2.7051
G01 X7.2904 Y2.7096
G01 X7.2905 Y2.7141
G01 X7.2906 Y2.7186
G01 X7.2906 Y2.7232
G01 X7.2907 Y2.7278
G01 X7.2908 Y2.7325
G01 X7.2909 Y2.7372
G01 X7.2909 Y2.7419
G01 X7.2910 Y2.7467
G01 X7.2910 Y2.7514
G01 X7.2911 Y2.7563
G01 X7.2911 Y2.7611
G01 X7.2912 Y2.7660
G01 X7.2912 Y2.7709
G01 X7.2913 Y2.7759
G01 X7.2913 Y2.7809
G01 X7.2914 Y2.7860
G01 X7.2914 Y2.7910
G01 X7.2914 Y2.7961
G01 X7.2915 Y2.8013
G01 X7.2915 Y2.8065
G01 X7.2915 Y2.8117
G01 X7.2915 Y2.8170
G01 X7.2915 Y2.8223
G01 X7.2916 Y2.8276
G01 X7.2916 Y2.8330
G01 X7.2916 Y2.8384
G01 X7.2916 Y2.8439
G01 X7.2916 Y2.8494
G01 X7.2916 Y2.8549
G01 X7.2916 Y2.8605
G01 X7.2916 Y2.8661
G01 X7.2916 Y2.8718
G01 X7.2917 Y2.8775
G01 X7.2917 Y2.8832
G01 X7.2917 Y2.8890
G01 X7.2917 Y2.8949
G01 X7.2917 Y2.9007
G01 X7.2917 Y2.9066
G01 X7.2917 Y2.9126
G01 X7.2917 Y2.9186
G01 X7.2917 Y2.9246
G01 X7.2917 Y2.9307
G01 X7.2917 Y5.4026
G01 X7.2917 Y5.4087
G01 X7.2917 Y5.4147
G01 X7.2917 Y5.4207
G01 X7.2917 Y5.4267
G01 X7.2917 Y5.4326
G01 X7.2917 Y5.4384
G01 X7.2917 Y5.4443
G01 X7.2917 Y5.4501
G01 X7.2917 Y5.4558
G01 X7.2916 Y5.4615
G01 X7.2916 Y5.4672
G01 X7.2916 Y5.4728
G01 X7.2916 Y5.4784
G01 X7.2916 Y5.4839
G01 X7.2916 Y5.4894
G01 X7.2916 Y5.4949
G01 X7.2916 Y5.5003
G01 X7.2916 Y5.5057
G01 X7.2915 Y5.5110
G01 X7.2915 Y5.5163
G01 X7.2915 Y5.5216
G01 X7.2915 Y5.5268
G01 X7.2915 Y5.5320
G01 X7.2914 Y5.5372
G01 X7.2914 Y5.5423
G01 X7.2914 Y5.5473
G01 X7.2913 Y5.5524
G01 X7.2913 Y5.5574
G01 X7.2912 Y5.5624
G01 X7.2912 Y5.5673
G01 X7.2911 Y5.5722
G01 X7.2911 Y5.5770
G01 X7.2910 Y5.5819
G01 X7.2910 Y5.5866
G01 X7.2909 Y5.5914
G01 X7.2909 Y5.5961
G01 X7.2908 Y5.6008
G01 X7.2907 Y5.6055
G01 X7.2906 Y5.6101
G01 X7.2906 Y5.6147
G01 X7.2905 Y5.6192
G01 X7.2904 Y5.6237
G01 X7.2903 Y5.6282
G01 X7.2902 Y5.6327
G01 X7.2901 Y5.6371
G01 X7.2900 Y5.6415
G01 X7.2899 Y5.6458
G01 X7.2897 Y5.6502
G01 X7.2896 Y5.6544
G01 X7.2895 Y5.6587
G01 X7.2894 Y5.6629
G01 X7.2892 Y5.6672
G01 X7.2891 Y5.6713
G01 X7.2889 Y5.6755
G01 X7.2888 Y5.6796
G01 X7.2886 Y5.6837
G01 X7.2884 Y5.6877
G01 X7.2883 Y5.6918
G01 X7.2881 Y5.6958
G01 X7.2879 Y5.6997
G01 X7.2877 Y5.7037
G01 X7.2875 Y5.7076
G01 X7.2873 Y5.7115
G01 X7.2871 Y5.7153
G01 X7.2869 Y5.7192
G01 X7.2867 Y5.7230
G01 X7.2864 Y5.7268
G01 X7.2862 Y5.7305
G01 X7.2859 Y5.7343
G01 X7.2857 Y5.7380
G01 X7.2854 Y5.7417
G01 X7.2852 Y5.7453
G01 X7.2849 Y5.7489
G01 X7.2846 Y5.7526
G01 X7.2843 Y5.7561
G01 X7.2840 Y5.7597
G01 X7.2837 Y5.7632
G01 X7.2834 Y5.7668
G01 X7.2831 Y5.7702
G01 X7.2827 Y5.7737
G01 X7.2824 Y5.7772
G01 X7.2821 Y5.7806
G01 X7.2817 Y5.7840
G01 X7.2813 Y5.7874
G01 X7.2810 Y5.7907
G01 X7.2806 Y5.7941
G01 X7.2802 Y5.7974
G01 X7.2798 Y5.8007
G01 X7.2794 Y5.8040
G01 X7.2790 Y5.8072
G01 X7.2785 Y5.8105
G01 X7.2781 Y5.8137
G01 X7.2776 Y5.8169
G01 X7.2772 Y5.8201
G01 X7.2767 Y5.8232
G01 X7.2762 Y5.8264
G01 X7.2757 Y5.8295
G01 X7.2753 Y5.8326
G01 X7.2747 Y5.8357
G01 X7.2742 Y5.8388
G01 X7.2737 Y5.8418
G01 X7.2732 Y5.8449
G01 X7.2726 Y5.8479
G01 X7.2720 Y5.8509
G01 X7.2715 Y5.8539
G01 X7.2709 Y5.8569
G01 X7.2703 Y5.8598
G01 X7.2697 Y5.8628
G01 X7.2691 Y5.8657
G01 X7.2685 Y5.8686
G01 X7.2678 Y5.8715
G01 X7.2672 Y5.8744
G01 X7.2665 Y5.8773
G01 X7.2658 Y5.8802
G01 X7.2651 Y5.8830
G01 X7.2644 Y5.8858
G01 X7.2637 Y5.8887
G01 X7.2630 Y5.8915
G01 X7.2623 Y5.8943
G01 X7.2615 Y5.8971
G01 X7.2608 Y5.8998
G01 X7.2600 Y5.9026
G01 X7.2592 Y5.9054
G01 X7.2584 Y5.9081
G01 X7.2576 Y5.9108
G01 X7.2568 Y5.9136
G01 X7.2559 Y5.9163
G01 X7.2551 Y5.9190
G01 X7.2542 Y5.9217
G01 X7.2533 Y5.9243
G01 X7.2525 Y5.9270
G01 X7.2516 Y5.9297
G01 X7.2506 Y5.9323
G01 X7.2497 Y5.9350
G01 X7.2488 Y5.9376
G01 X7.2478 Y5.9403
G01 X7.2468 Y5.9429
G01 X7.2458 Y5.9455
G01 X7.2448 Y5.9481
G01 X7.2434 Y5.9519
G01 X7.2419 Y5.9556
G01 X7.2404 Y5.9593
G01 X7.2389 Y5.9630
G01 X7.2373 Y5.9667
G01 X7.2358 Y5.9703
G01 X7.2342 Y5.9740
G01 X7.2326 Y5.9777
G01 X7.2310 Y5.9813
G01 X7.2294 Y5.9849
G01 X7.2277 Y5.9886
G01 X7.2260 Y5.9922
G01 X7.2243 Y5.9958
G01 X7.2226 Y5.9994
G01 X7.2208 Y6.0029
G01 X7.2191 Y6.0065
G01 X7.2173 Y6.0101
G01 X7.2155 Y6.0136
G01 X7.2137 Y6.0171
G01 X7.2118 Y6.0207
G01 X7.2100 Y6.0242
G01 X7.2081 Y6.0277
G01 X7.2062 Y6.0312
G01 X7.2043 Y6.0347
G01 X7.2023 Y6.0381
G01 X7.2004 Y6.0416
G01 X7.1984 Y6.0450
G01 X7.1964 Y6.0485
G01 X7.1944 Y6.0519
G01 X7.1923 Y6.0553
G01 X7.1903 Y6.0587
G01 X7.1882 Y6.0621
G01 X7.1861 Y6.0654
G01 X7.1840 Y6.0688
G01 X7.1819 Y6.0721
G01 X7.1797 Y6.0755
G01 X7.1775 Y6.0788
G01 X7.1754 Y6.0821
G01 X7.1731 Y6.0854
G01 X7.1709 Y6.0887
G01 X7.1687 Y6.0920
G01 X7.1664 Y6.0952
G01 X7.1641 Y6.0985
G01 X7.1618 Y6.1017
G01 X7.1595 Y6.1049
G01 X7.1572 Y6.1081
G01 X7.1548 Y6.1113
G01 X7.1524 Y6.1145
G01 X7.1500 Y6.1177
G01 X7.1476 Y6.1208
G01 X7.1452 Y6.1240
G01 X7.1428 Y6.1271
G01 X7.1403 Y6.1302
G01 X7.1378 Y6.1333
G01 X7.1353 Y6.1364
G01 X7.1328 Y6.1394
G01 X7.1303 Y6.1425
G01 X7.1277 Y6.1455
G01 X7.1251 Y6.1486
G01 X7.1225 Y6.1516
G01 X7.1199 Y6.1546
G01 X7.1173 Y6.1576
G01 X7.1147 Y6.1605
G01 X7.1120 Y6.1635
G01 X7.1093 Y6.1664
G01 X7.1066 Y6.1693
G01 X7.1039 Y6.1722
G01 X7.1012 Y6.1751
G01 X7.0985 Y6.1780
G01 X7.0957 Y6.1809
G01 X7.0929 Y6.1837
G01 X7.0901 Y6.1866
G01 X7.0873 Y6.1894
G01 X7.0845 Y6.1922
G01 X7.0816 Y6.1950
G01 X7.0788 Y6.1977
G01 X7.0759 Y6.2005
G01 X7.0730 Y6.2032
G01 X7.0701 Y6.2060
G01 X7.0672 Y6.2087
G01 X7.0642 Y6.2114
G01 X7.0612 Y6.2140
G01 X7.0583 Y6.2167
G01 X7.0553 Y6.2193
G01 X7.0523 Y6.2220
G01 X7.0492 Y6.2246
G01 X7.0471 Y6.2264
G01 X7.0450 Y6.2282
G01 X7.0428 Y6.2300
G01 X7.0406 Y6.2318
G01 X7.0385 Y6.2336
G01 X7.0363 Y6.2353
G01 X7.0341 Y6.2371
G01 X7.0319 Y6.2388
G01 X7.0296 Y6.2405
G01 X7.0274 Y6.2423
G01 X7.0251 Y6.2440
G01 X7.0229 Y6.2457
G01 X7.0206 Y6.2474
G01 X7.0183 Y6.2491
G01 X7.0160 Y6.2507
G01 X7.0137 Y6.2524
G01 X7.0113 Y6.2540
G01 X7.0090 Y6.2557
G01 X7.0066 Y6.2573
G01 X7.0042 Y6.2590
G01 X7.0018 Y6.2606
G01 X6.9994 Y6.2622
G01 X6.9970 Y6.2638
G01 X6.9946 Y6.2654
G01 X6.9921 Y6.2670
G01 X6.9896 Y6.2686
G01 X6.9871 Y6.2702
G01 X6.9846 Y6.2718
G01 X6.9821 Y6.2733
G01 X6.9796 Y6.2749
G01 X6.9770 Y6.2765
G01 X6.9744 Y6.2780
G01 X6.9718 Y6.2796
G01 X6.9692 Y6.2811
G01 X6.9666 Y6.2826
G01 X6.9639 Y6.2842
G01 X6.9613 Y6.2857
G01 X6.9586 Y6.2872
G01 X6.9559 Y6.2887
G01 X6.9531 Y6.2902
G01 X6.9504 Y6.2917
G01 X6.9476 Y6.2932
G01 X6.9448 Y6.2947
G01 X6.9420 Y6.2962
G01 X6.9392 Y6.2977
G01 X6.9364 Y6.2992
G01 X6.9335 Y6.3007
G01 X6.9306 Y6.3022
G01 X6.9277 Y6.3037
G01 X6.9248 Y6.3052
G01 X6.9218 Y6.3066
G01 X6.9188 Y6.3081
G01 X6.9158 Y6.3096
G01 X6.9128 Y6.3111
G01 X6.9098 Y6.3125
G01 X6.9067 Y6.3140
G01 X6.9036 Y6.3155
G01 X6.9005 Y6.3169
G01 X6.8974 Y6.3184
G01 X6.8942 Y6.3199
G01 X6.8910 Y6.3213
G01 X6.8878 Y6.3228
G01 X6.8846 Y6.3243
G01 X6.8813 Y6.3257
G01 X6.8780 Y6.3272
G01 X6.8747 Y6.3287
G01 X6.8714 Y6.3301
G01 X6.8680 Y6.3316
G01 X6.8646 Y6.3331
G01 X6.8612 Y6.3345
G01 X6.8578 Y6.3360
G01 X6.8543 Y6.3375
G01 X6.8508 Y6.3390
G01 X6.8473 Y6.3405
G01 X6.8438 Y6.3419
G01 X6.8402 Y6.3434
G01 X6.8366 Y6.3449
G01 X6.8330 Y6.3464
G01 X6.8293 Y6.3479
G01 X6.8256 Y6.3494
G01 X6.8219 Y6.3509
G01 X6.8182 Y6.3524
G01 X6.8144 Y6.3539
G01 X6.8106 Y6.3554
G01 X6.8068 Y6.3569
G01 X6.8029 Y6.3584
G01 X6.7990 Y6.3600
G01 X6.7951 Y6.3615
G01 X6.7912 Y6.3630
G01 X6.7872 Y6.3646
G01 X6.7832 Y6.3661
G01 X6.7791 Y6.3677
G01 X6.7751 Y6.3692
G01 X6.7710 Y6.3708
G01 X6.7668 Y6.3724
G01 X6.7627 Y6.3739
G01 X6.7585 Y6.3755
G01 X6.7542 Y6.3771
G01 X6.7500 Y6.3787
G01 X6.7457 Y6.3803
G01 X6.7413 Y6.3819
G01 X6.7370 Y6.3835
G01 X6.7326 Y6.3852
G01 X6.7282 Y6.3868
G01 X6.7237 Y6.3884
G01 X6.7192 Y6.3901
G01 X6.7147 Y6.3917
G01 X6.7101 Y6.3934
G01 X6.7055 Y6.3951
G01 X6.7009 Y6.3968
G01 X6.6962 Y6.3985
G01 X6.6915 Y6.4002
G01 X6.6868 Y6.4019
G01 X6.6820 Y6.4036
G01 X6.6772 Y6.4053
G01 X6.6723 Y6.4071
G01 X6.6674 Y6.4088
G01 X6.6625 Y6.4106
G01 X6.6576 Y6.4124
G01 X6.6526 Y6.4141
G01 X6.6475 Y6.4159
G01 X6.6425 Y6.4177
G01 X6.6374 Y6.4196
G01 X6.6322 Y6.4214
G01 X6.6270 Y6.4232
G01 X6.6218 Y6.4251
G01 X6.6166 Y6.4269
G01 X6.6113 Y6.4288
G01 X6.6059 Y6.4307
G01 X6.6005 Y6.4326
G01 X6.5951 Y6.4345
G01 X6.5897 Y6.4365
G01 X6.5842 Y6.4384
G01 X6.5786 Y6.4404
G01 X6.5731 Y6.4423
G01 X6.5674 Y6.4443
G01 X6.5618 Y6.4463
G01 X6.5561 Y6.4483
G01 X6.5503 Y6.4503
G01 X4.5365 Y7.1611
G01 X4.5309 Y7.1631
G01 X4.5253 Y7.1650
G01 X4.5199 Y7.1670
G01 X4.5145 Y7.1689
G01 X4.5092 Y7.1707
G01 X4.5040 Y7.1726
G01 X4.4989 Y7.1744
G01 X4.4938 Y7.1762
G01 X4.4888 Y7.1779
G01 X4.4838 Y7.1797
G01 X4.4789 Y7.1814
G01 X4.4741 Y7.1831
G01 X4.4694 Y7.1847
G01 X4.4647 Y7.1864
G01 X4.4600 Y7.1880
G01 X4.4555 Y7.1895
G01 X4.4510 Y7.1911
G01 X4.4465 Y7.1926
G01 X4.4421 Y7.1941
G01 X4.4378 Y7.1956
G01 X4.4335 Y7.1971
G01 X4.4293 Y7.1985
G01 X4.4251 Y7.1999
G01 X4.4210 Y7.2013
G01 X4.4169 Y7.2027
G01 X4.4129 Y7.2040
G01 X4.4090 Y7.2054
G01 X4.4050 Y7.2067
G01 X4.4012 Y7.2079
G01 X4.3973 Y7.2092
G01 X4.3936 Y7.2104
G01 X4.3898 Y7.2116
G01 X4.3861 Y7.2128
G01 X4.3825 Y7.2139
G01 X4.3789 Y7.2151
G01 X4.3753 Y7.2162
G01 X4.3717 Y7.2173
G01 X4.3682 Y7.2184
G01 X4.3648 Y7.2194
G01 X4.3613 Y7.2204
G01 X4.3579 Y7.2214
G01 X4.3546 Y7.2224
G01 X4.3513 Y7.2234
G01 X4.3480 Y7.2243
G01 X4.3447 Y7.2253
G01 X4.3414 Y7.2262
G01 X4.3382 Y7.2270
G01 X4.3350 Y7.2279
G01 X4.3319 Y7.2287
G01 X4.3287 Y7.2296
G01 X4.3256 Y7.2304
G01 X4.3225 Y7.2311
G01 X4.3194 Y7.2319
G01 X4.3164 Y7.2327
G01 X4.3133 Y7.2334
G01 X4.3103 Y7.2341
G01 X4.3073 Y7.2348
G01 X4.3043 Y7.2354
G01 X4.3014 Y7.2361
G01 X4.2984 Y7.2367
G01 X4.2955 Y7.2373
G01 X4.2925 Y7.2379
G01 X4.2896 Y7.2385
G01 X4.2867 Y7.2390
G01 X4.2838 Y7.2396
G01 X4.2809 Y7.2401
G01 X4.2780 Y7.2406
G01 X4.2751 Y7.2411
G01 X4.2722 Y7.2416
G01 X4.2693 Y7.2420
G01 X4.2664 Y7.2425
G01 X4.2635 Y7.2429
G01 X4.2606 Y7.2433
G01 X4.2566 Y7.2438
G01 X4.2527 Y7.2443
G01 X4.2487 Y7.2448
G01 X4.2447 Y7.2453
G01 X4.2407 Y7.2457
G01 X4.2367 Y7.2461
G01 X4.2327 Y7.2465
G01 X4.2287 Y7.2469
G01 X4.2247 Y7.2472
G01 X4.2207 Y7.2476
G01 X4.2167 Y7.2479
G01 X4.2127 Y7.2481
G01 X4.2087 Y7.2484
G01 X4.2047 Y7.2486
G01 X4.2007 Y7.2488
G01 X4.1967 Y7.2490
G01 X4.1927 Y7.2492
G01 X4.1887 Y7.2493
G01 X4.1847 Y7.2494
G01 X4.1807 Y7.2495
G01 X4.1767 Y7.2496
G01 X4.1727 Y7.2496
G01 X4.1687 Y7.2497
G01 X4.1647 Y7.2497
G01 X4.1607 Y7.2496
G01 X4.1566 Y7.2496
G01 X4.1526 Y7.2495
G01 X4.1486 Y7.2494
G01 X4.1446 Y7.2493
G01 X4.1406 Y7.2492
G01 X4.1366 Y7.2490
G01 X4.1326 Y7.2488
G01 X4.1286 Y7.2486
G01 X4.1246 Y7.2484
G01 X4.1206 Y7.2481
G01 X4.1166 Y7.2479
G01 X4.1126 Y7.2476
G01 X4.1086 Y7.2472
G01 X4.1046 Y7.2469
G01 X4.1006 Y7.2465
G01 X4.0966 Y7.2461
G01 X4.0926 Y7.2457
G01 X4.0886 Y7.2453
G01 X4.0847 Y7.2448
G01 X4.0807 Y7.2443
G01 X4.0767 Y7.2438
G01 X4.0727 Y7.2433
G01 X4.0698 Y7.2429
G01 X4.0669 Y7.2425
G01 X4.0640 Y7.2420
G01 X4.0612 Y7.2416
G01 X4.0583 Y7.2411
G01 X4.0554 Y7.2406
G01 X4.0525 Y7.2401
G01 X4.0496 Y7.2396
G01 X4.0467 Y7.2390
G01 X4.0437 Y7.2385
G01 X4.0408 Y7.2379
G01 X4.0379 Y7.2373
G01 X4.0349 Y7.2367
G01 X4.0320 Y7.2361
G01 X4.0290 Y7.2354
G01 X4.0260 Y7.2348
G01 X4.0230 Y7.2341
G01 X4.0200 Y7.2334
G01 X4.0170 Y7.2327
G01 X4.0139 Y7.2319
G01 X4.0108 Y7.2311
G01 X4.0077 Y7.2304
G01 X4.0046 Y7.2296
G01 X4.0015 Y7.2287
G01 X3.9983 Y7.2279
G01 X3.9951 Y7.2270
G01 X3.9919 Y7.2262
G01 X3.9887 Y7.2253
G01 X3.9854 Y7.2243
G01 X3.9821 Y7.2234
G01 X3.9787 Y7.2224
G01 X3.9754 Y7.2214
G01 X3.9720 Y7.2204
G01 X3.9686 Y7.2194
G01 X3.9651 Y7.2184
G01 X3.9616 Y7.2173
G01 X3.9581 Y7.2162
G01 X3.9545 Y7.2151
G01 X3.9509 Y7.2139
G01 X3.9472 Y7.2128
G01 X3.9435 Y7.2116
G01 X3.9398 Y7.2104
G01 X3.9360 Y7.2092
G01 X3.9322 Y7.2079
G01 X3.9283 Y7.2067
G01 X3.9244 Y7.2054
G01 X3.9204 Y7.2040
G01 X3.9164 Y7.2027
G01 X3.9123 Y7.2013
G01 X3.9082 Y7.1999
G01 X3.9040 Y7.1985
G01 X3.8998 Y7.1971
G01 X3.8955 Y7.1956
G01 X3.8912 Y7.1941
G01 X3.8868 Y7.1926
G01 X3.8824 Y7.1911
G01 X3.8779 Y7.1895
G01 X3.8733 Y7.1880
G01 X3.8687 Y7.1864
G01 X3.8640 Y7.1847
G01 X3.8592 Y7.1831
G01 X3.8544 Y7.1814
G01 X3.8495 Y7.1797
G01 X3.8446 Y7.1779
G01 X3.8396 Y7.1762
G01 X3.8345 Y7.1744
G01 X3.8293 Y7.1726
G01 X3.8241 Y7.1707
G01 X3.8188 Y7.1689
G01 X3.8134 Y7.1670
G01 X3.8080 Y7.1650
G01 X3.8025 Y7.1631
G01 X3.7969 Y7.1611
G01 X1.7830 Y6.4503
G01 X1.7772 Y6.4483
G01 X1.7715 Y6.4463
G01 X1.7659 Y6.4443
G01 X1.7603 Y6.4423
G01 X1.7547 Y6.4404
G01 X1.7492 Y6.4384
G01 X1.7437 Y6.4365
G01 X1.7382 Y6.4345
G01 X1.7328 Y6.4326
G01 X1.7274 Y6.4307
G01 X1.7221 Y6.4288
G01 X1.7168 Y6.4269
G01 X1.7115 Y6.4251
G01 X1.7063 Y6.4232
G01 X1.7011 Y6.4214
G01 X1.6960 Y6.4196
G01 X1.6909 Y6.4177
G01 X1.6858 Y6.4159
G01 X1.6808 Y6.4141
G01 X1.6758 Y6.4124
G01 X1.6708 Y6.4106
G01 X1.6659 Y6.4088
G01 X1.6610 Y6.4071
G01 X1.6562 Y6.4053
G01 X1.6513 Y6.4036
G01 X1.6466 Y6.4019
G01 X1.6418 Y6.4002
G01 X1.6371 Y6.3985
G01 X1.6325 Y6.3968
G01 X1.6278 Y6.3951
G01 X1.6232 Y6.3934
G01 X1.6187 Y6.3917
G01 X1.6141 Y6.3901
G01 X1.6096 Y6.3884
G01 X1.6052 Y6.3868
G01 X1.6007 Y6.3852
G01 X1.5963 Y6.3835
G01 X1.5920 Y6.3819
G01 X1.5877 Y6.3803
G01 X1.5834 Y6.3787
G01 X1.5791 Y6.3771
G01 X1.5749 Y6.3755
G01 X1.5707 Y6.3739
G01 X1.5665 Y6.3724
G01 X1.5624 Y6.3708
G01 X1.5583 Y6.3692
G01 X1.5542 Y6.3677
G01 X1.5502 Y6.3661
G01 X1.5461 Y6.3646
G01 X1.5422 Y6.3630
G01 X1.5382 Y6.3615
G01 X1.5343 Y6.3600
G01 X1.5304 Y6.3584
G01 X1.5266 Y6.3569
G01 X1.5227 Y6.3554
G01 X1.5189 Y6.3539
G01 X1.5152 Y6.3524
G01 X1.5114 Y6.3509
G01 X1.5077 Y6.3494
G01 X1.5040 Y6.3479
G01 X1.5004 Y6.3464
G01 X1.4967 Y6.3449
G01 X1.4931 Y6.3434
G01 X1.4896 Y6.3419
G01 X1.4860 Y6.3405
G01 X1.4825 Y6.3390
G01 X1.4790 Y6.3375
G01 X1.4755 Y6.3360
G01 X1.4721 Y6.3345
G01 X1.4687 Y6.3331
G01 X1.4653 Y6.3316
G01 X1.4619 Y6.3301
G01 X1.4586 Y6.3287
G01 X1.4553 Y6.3272
G01 X1.4520 Y6.3257
G01 X1.4488 Y6.3243
G01 X1.4455 Y6.3228
G01 X1.4423 Y6.3213
G01 X1.4391 Y6.3199
G01 X1.4360 Y6.3184
G01 X1.4328 Y6.3169
G01 X1.4297 Y6.3155
G01 X1.4266 Y6.3140
G01 X1.4236 Y6.3125
G01 X1.4205 Y6.3111
G01 X1.4175 Y6.3096
G01 X1.4145 Y6.3081
G01 X1.4115 Y6.3066
G01 X1.4086 Y6.3052
G01 X1.4056 Y6.3037
G01 X1.4027 Y6.3022
G01 X1.3998 Y6.3007
G01 X1.3970 Y6.2992
G01 X1.3941 Y6.2977
G01 X1.3913 Y6.2962
G01 X1.3885 Y6.2947
G01 X1.3857 Y6.2932
G01 X1.3829 Y6.2917
G01 X1.3802 Y6.2902
G01 X1.3775 Y6.2887
G01 X1.3748 Y6.2872
G01 X1.3721 Y6.2857
G01 X1.3694 Y6.2842
G01 X1.3667 Y6.2826
G01 X1.3641 Y6.2811
G01 X1.3615 Y6.2796
G01 X1.3589 Y6.2780
G01 X1.3563 Y6.2765
G01 X1.3538 Y6.2749
G01 X1.3512 Y6.2733
G01 X1.3487 Y6.2718
G01 X1.3462 Y6.2702
G01 X1.3437 Y6.2686
G01 X1.3412 Y6.2670
G01 X1.3388 Y6.2654
G01 X1.3363 Y6.2638
G01 X1.3339 Y6.2622
G01 X1.3315 Y6.2606
G01 X1.3291 Y6.2590
G01 X1.3267 Y6.2573
G01 X1.3244 Y6.2557
G01 X1.3220 Y6.2540
G01 X1.3197 Y6.2524
G01 X1.3173 Y6.2507
G01 X1.3150 Y6.2491
G01 X1.3127 Y6.2474
G01 X1.3105 Y6.2457
G01 X1.3082 Y6.2440
G01 X1.3060 Y6.2423
G01 X1.3037 Y6.2405
G01 X1.3015 Y6.2388
G01 X1.2993 Y6.2371
G01 X1.2971 Y6.2353
G01 X1.2949 Y6.2336
G01 X1.2927 Y6.2318
G01 X1.2905 Y6.2300
G01 X1.2884 Y6.2282
G01 X1.2862 Y6.2264
G01 X1.2841 Y6.2246
G01 X1.2811 Y6.2220
G01 X1.2781 Y6.2193
G01 X1.2751 Y6.2167
G01 X1.2721 Y6.2140
G01 X1.2691 Y6.2114
G01 X1.2662 Y6.2087
G01 X1.2633 Y6.2060
G01 X1.2603 Y6.2032
G01 X1.2575 Y6.2005
G01 X1.2546 Y6.1977
G01 X1.2517 Y6.1950
G01 X1.2489 Y6.1922
G01 X1.2460 Y6.1894
G01 X1.2432 Y6.1866
G01 X1.2404 Y6.1837
G01 X1.2376 Y6.1809
G01 X1.2349 Y6.1780
G01 X1.2321 Y6.1751
G01 X1.2294 Y6.1722
G01 X1.2267 Y6.1693
G01 X1.2240 Y6.1664
G01 X1.2213 Y6.1635
G01 X1.2187 Y6.1605
G01 X1.2160 Y6.1576
G01 X1.2134 Y6.1546
G01 X1.2108 Y6.1516
G01 X1.2082 Y6.1486
G01 X1.2056 Y6.1455
G01 X1.2031 Y6.1425
G01 X1.2005 Y6.1394
G01 X1.1980 Y6.1364
G01 X1.1955 Y6.1333
G01 X1.1930 Y6.1302
G01 X1.1906 Y6.1271
G01 X1.1881 Y6.1240
G01 X1.1857 Y6.1208
G01 X1.1833 Y6.1177
G01 X1.1809 Y6.1145
G01 X1.1785 Y6.1113
G01 X1.1762 Y6.1081
G01 X1.1738 Y6.1049
G01 X1.1715 Y6.1017
G01 X1.1692 Y6.0985
G01 X1.1669 Y6.0952
G01 X1.1647 Y6.0920
G01 X1.1624 Y6.0887
G01 X1.1602 Y6.0854
G01 X1.1580 Y6.0821
G01 X1.1558 Y6.0788
G01 X1.1536 Y6.0755
G01 X1.1515 Y6.0721
G01 X1.1493 Y6.0688
G01 X1.1472 Y6.0654
G01 X1.1451 Y6.0621
G01 X1.1431 Y6.0587
G01 X1.1410 Y6.0553
G01 X1.1390 Y6.0519
G01 X1.1369 Y6.0485
G01 X1.1349 Y6.0450
G01 X1.1330 Y6.0416
G01 X1.1310 Y6.0381
G01 X1.1291 Y6.0347
G01 X1.1272 Y6.0312
G01 X1.1253 Y6.0277
G01 X1.1234 Y6.0242
G01 X1.1215 Y6.0207
G01 X1.1197 Y6.0171
G01 X1.1178 Y6.0136
G01 X1.1160 Y6.0101
G01 X1.1143 Y6.0065
G01 X1.1125 Y6.0029
G01 X1.1108 Y5.9994
G01 X1.1090 Y5.9958
G01 X1.1073 Y5.9922
G01 X1.1057 Y5.9886
G01 X1.1040 Y5.9849
G01 X1.1024 Y5.9813
G01 X1.1007 Y5.9777
G01 X1.0991 Y5.9740
G01 X1.0976 Y5.9703
G01 X1.0960 Y5.9667
G01 X1.0945 Y5.9630
G01 X1.0929 Y5.9593
G01 X1.0915 Y5.9556
G01 X1.0900 Y5.9519
G01 X1.0885 Y5.9481
G01 X1.0875 Y5.9455
G01 X1.0865 Y5.9429
G01 X1.0856 Y5.9403
G01 X1.0846 Y5.9376
G01 X1.0836 Y5.9350
G01 X1.0827 Y5.9323
G01 X1.0818 Y5.9297
G01 X1.0809 Y5.9270
G01 X1.0800 Y5.9243
G01 X1.0791 Y5.9217
G01 X1.0783 Y5.9190
G01 X1.0774 Y5.9163
G01 X1.0766 Y5.9136
G01 X1.0757 Y5.9108
G01 X1.0749 Y5.9081
G01 X1.0741 Y5.9054
G01 X1.0733 Y5.9026
G01 X1.0726 Y5.8998
G01 X1.0718 Y5.8971
G01 X1.0711 Y5.8943
G01 X1.0703 Y5.8915
G01 X1.0696 Y5.8887
G01 X1.0689 Y5.8858
G01 X1.0682 Y5.8830
G01 X1.0675 Y5.8802
G01 X1.0668 Y5.8773
G01 X1.0662 Y5.8744
G01 X1.0655 Y5.8715
G01 X1.0649 Y5.8686
G01 X1.0643 Y5.8657
G01 X1.0636 Y5.8628
G01 X1.0630 Y5.8598
G01 X1.0624 Y5.8569
G01 X1.0619 Y5.8539
G01 X1.0613 Y5.8509
G01 X1.0607 Y5.8479
G01 X1.0602 Y5.8449
G01 X1.0596 Y5.8418
G01 X1.0591 Y5.8388
G01 X1.0586 Y5.8357
G01 X1.0581 Y5.8326
G01 X1.0576 Y5.8295
G01 X1.0571 Y5.8264
G01 X1.0566 Y5.8232
G01 X1.0562 Y5.8201
G01 X1.0557 Y5.8169
G01 X1.0553 Y5.8137
G01 X1.0548 Y5.8105
G01 X1.0544 Y5.8072
G01 X1.0540 Y5.8040
G01 X1.0536 Y5.8007
G01 X1.0532 Y5.7974
G01 X1.0528 Y5.7941
G01 X1.0524 Y5.7907
G01 X1.0520 Y5.7874
G01 X1.0516 Y5.7840
G01 X1.0513 Y5.7806
G01 X1.0509 Y5.7772
G01 X1.0506 Y5.7737
G01 X1.0503 Y5.7702
G01 X1.0499 Y5.7668
G01 X1.0496 Y5.7632
G01 X1.0493 Y5.7597
G01 X1.0490 Y5.7561
G01 X1.0487 Y5.7526
G01 X1.0485 Y5.7489
G01 X1.0482 Y5.7453
G01 X1.0479 Y5.7417
G01 X1.0477 Y5.7380
G01 X1.0474 Y5.7343
G01 X1.0472 Y5.7305
G01 X1.0469 Y5.7268
G01 X1.0467 Y5.7230
G01 X1.0465 Y5.7192
G01 X1.0462 Y5.7153
G01 X1.0460 Y5.7115
G01 X1.0458 Y5.7076
G01 X1.0456 Y5.7037
G01 X1.0454 Y5.6997
G01 X1.0453 Y5.6958
G01 X1.0451 Y5.6918
G01 X1.0449 Y5.6877
G01 X1.0447 Y5.6837
G01 X1.0446 Y5.6796
G01 X1.0444 Y5.6755
G01 X1.0443 Y5.6713
G01 X1.0441 Y5.6672
G01 X1.0440 Y5.6629
G01 X1.0438 Y5.6587
G01 X1.0437 Y5.6544
G01 X1.0436 Y5.6502
G01 X1.0435 Y5.6458
G01 X1.0434 Y5.6415
G01 X1.0433 Y5.6371
G01 X1.0432 Y5.6327
G01 X1.0431 Y5.6282
G01 X1.0430 Y5.6237
G01 X1.0429 Y5.6192
G01 X1.0428 Y5.6147
G00 X4.1667 Y4.7810
G01 X4.1667 Y1.0836
M2
